STARLINK-36708          
1 67713U 26025W   26047.50002314 -.01344021  58941-3 -21854-2 0  9992
2 67713  97.2755 157.8943 0001185  52.0972   6.0547 16.03455381  2503
STARLINK-36702          
1 67714U 26025X   26047.50002314 -.01348178  59135-3 -22191-2 0  9991
2 67714  97.2755 157.8925 0001382  48.3270   6.2634 16.03248813  2231
STARLINK-36718          
1 67715U 26025Y   26047.50002314 -.01326483  57857-3 -20952-2 0  9999
2 67715  97.2755 157.8981 0001163  54.3097  12.2063 16.03942473  2444
STARLINK-36715          
1 67716U 26025Z   26047.50002314 -.01327209  57756-3 -21254-2 0  9991
2 67716  97.2753 157.8963 0001288  51.7292  10.8467 16.03710329  2501
STARLINK-36385          
1 67717U 26025AA  26047.50002314 -.01359265  59868-3 -22698-2 0  9998
2 67717  97.2758 157.8911 0001376  47.5518   2.7938 16.03005155  2509
CZ-2F DEB               
1 67718U 26024E   26047.45283346  .00252203  00000+0  50703-2 0  9997
2 67718  50.3138 122.3820 0262527 196.5445 162.6822 15.16212508  1400
CZ-2F DEB               
1 67719U 26024F   26047.50202861  .00187275  00000+0  48123-2 0  9996
2 67719  49.7911 123.3761 0335053 186.6001 173.0470 14.96947854  1063
CZ-2F DEB               
1 67720U 26024G   26047.45183513  .00184614  00000+0  48689-2 0  9995
2 67720  49.8302 123.7914 0345924 183.0166 176.8690 14.94254718  1372
2026-027A               
1 67746U 26027A   26047.47055002  .00009071  00000+0  45806-3 0  9991
2 67746  97.4877 176.7183 0009147 274.2575  85.7613 15.17283468   645
2026-027B               
1 67747U 26027B   26047.47026994  .00008979  00000+0  45213-3 0  9998
2 67747  97.4871 176.7182 0009319 276.9080  83.1093 15.17384773   645
2027-027C               
1 67748U 27027C   26047.46987210  .00005928  00000+0  29866-3 0  9993
2 67748  97.4883 176.7195 0009767 280.1042  79.9089 15.17516194   647
2026-027D               
1 67749U 26027D   26047.46948149  .00009835  00000+0  49080-3 0  9992
2 67749  97.4878 176.7198 0009565 284.3017  75.7154 15.17674967   593
