CCSDS_OMM_VERS = 2.0
CREATION_DATE  = 
ORIGINATOR     = 

OBJECT_NAME    = STARLINK-36708
OBJECT_ID      = 2026-025W
CENTER_NAME    = EARTH
REF_FRAME      = TEME
TIME_SYSTEM    = UTC
MEAN_ELEMENT_THEORY = SGP/SGP4

EPOCH          = 2026-02-16T12:00:01.999296
MEAN_MOTION    = 16.03455381
ECCENTRICITY   = .0001185
INCLINATION    = 97.2755
RA_OF_ASC_NODE = 157.8943
ARG_OF_PERICENTER = 52.0972
MEAN_ANOMALY   = 6.0547

EPHEMERIS_TYPE = 0
CLASSIFICATION_TYPE = U
NORAD_CAT_ID   = 67713
ELEMENT_SET_NO = 999
REV_AT_EPOCH   = 250
BSTAR          = -.21854E-2
MEAN_MOTION_DOT = -.1344021E-1
MEAN_MOTION_DDOT = .58941E-3

CCSDS_OMM_VERS = 2.0
CREATION_DATE  = 
ORIGINATOR     = 

OBJECT_NAME    = STARLINK-36702
OBJECT_ID      = 2026-025X
CENTER_NAME    = EARTH
REF_FRAME      = TEME
TIME_SYSTEM    = UTC
MEAN_ELEMENT_THEORY = SGP/SGP4

EPOCH          = 2026-02-16T12:00:01.999296
MEAN_MOTION    = 16.03248813
ECCENTRICITY   = .0001382
INCLINATION    = 97.2755
RA_OF_ASC_NODE = 157.8925
ARG_OF_PERICENTER = 48.3270
MEAN_ANOMALY   = 6.2634

EPHEMERIS_TYPE = 0
CLASSIFICATION_TYPE = U
NORAD_CAT_ID   = 67714
ELEMENT_SET_NO = 999
REV_AT_EPOCH   = 223
BSTAR          = -.22191E-2
MEAN_MOTION_DOT = -.1348178E-1
MEAN_MOTION_DDOT = .59135E-3

CCSDS_OMM_VERS = 2.0
CREATION_DATE  = 
ORIGINATOR     = 

OBJECT_NAME    = STARLINK-36718
OBJECT_ID      = 2026-025Y
CENTER_NAME    = EARTH
REF_FRAME      = TEME
TIME_SYSTEM    = UTC
MEAN_ELEMENT_THEORY = SGP/SGP4

EPOCH          = 2026-02-16T12:00:01.999296
MEAN_MOTION    = 16.03942473
ECCENTRICITY   = .0001163
INCLINATION    = 97.2755
RA_OF_ASC_NODE = 157.8981
ARG_OF_PERICENTER = 54.3097
MEAN_ANOMALY   = 12.2063

EPHEMERIS_TYPE = 0
CLASSIFICATION_TYPE = U
NORAD_CAT_ID   = 67715
ELEMENT_SET_NO = 999
REV_AT_EPOCH   = 244
BSTAR          = -.20952E-2
MEAN_MOTION_DOT = -.1326483E-1
MEAN_MOTION_DDOT = .57857E-3

CCSDS_OMM_VERS = 2.0
CREATION_DATE  = 
ORIGINATOR     = 

OBJECT_NAME    = STARLINK-36715
OBJECT_ID      = 2026-025Z
CENTER_NAME    = EARTH
REF_FRAME      = TEME
TIME_SYSTEM    = UTC
MEAN_ELEMENT_THEORY = SGP/SGP4

EPOCH          = 2026-02-16T12:00:01.999296
MEAN_MOTION    = 16.03710329
ECCENTRICITY   = .0001288
INCLINATION    = 97.2753
RA_OF_ASC_NODE = 157.8963
ARG_OF_PERICENTER = 51.7292
MEAN_ANOMALY   = 10.8467

EPHEMERIS_TYPE = 0
CLASSIFICATION_TYPE = U
NORAD_CAT_ID   = 67716
ELEMENT_SET_NO = 999
REV_AT_EPOCH   = 250
BSTAR          = -.21254E-2
MEAN_MOTION_DOT = -.1327209E-1
MEAN_MOTION_DDOT = .57756E-3

CCSDS_OMM_VERS = 2.0
CREATION_DATE  = 
ORIGINATOR     = 

OBJECT_NAME    = STARLINK-36385
OBJECT_ID      = 2026-025AA
CENTER_NAME    = EARTH
REF_FRAME      = TEME
TIME_SYSTEM    = UTC
MEAN_ELEMENT_THEORY = SGP/SGP4

EPOCH          = 2026-02-16T12:00:01.999296
MEAN_MOTION    = 16.03005155
ECCENTRICITY   = .0001376
INCLINATION    = 97.2758
RA_OF_ASC_NODE = 157.8911
ARG_OF_PERICENTER = 47.5518
MEAN_ANOMALY   = 2.7938

EPHEMERIS_TYPE = 0
CLASSIFICATION_TYPE = U
NORAD_CAT_ID   = 67717
ELEMENT_SET_NO = 999
REV_AT_EPOCH   = 250
BSTAR          = -.22698E-2
MEAN_MOTION_DOT = -.1359265E-1
MEAN_MOTION_DDOT = .59868E-3

CCSDS_OMM_VERS = 2.0
CREATION_DATE  = 
ORIGINATOR     = 

OBJECT_NAME    = CZ-2F DEB
OBJECT_ID      = 2026-024E
CENTER_NAME    = EARTH
REF_FRAME      = TEME
TIME_SYSTEM    = UTC
MEAN_ELEMENT_THEORY = SGP/SGP4

EPOCH          = 2026-02-16T10:52:04.810944
MEAN_MOTION    = 15.16212508
ECCENTRICITY   = .0262527
INCLINATION    = 50.3138
RA_OF_ASC_NODE = 122.3820
ARG_OF_PERICENTER = 196.5445
MEAN_ANOMALY   = 162.6822

EPHEMERIS_TYPE = 0
CLASSIFICATION_TYPE = U
NORAD_CAT_ID   = 67718
ELEMENT_SET_NO = 999
REV_AT_EPOCH   = 140
BSTAR          = .50703E-2
MEAN_MOTION_DOT = .252203E-2
MEAN_MOTION_DDOT = 0

CCSDS_OMM_VERS = 2.0
CREATION_DATE  = 
ORIGINATOR     = 

OBJECT_NAME    = CZ-2F DEB
OBJECT_ID      = 2026-024F
CENTER_NAME    = EARTH
REF_FRAME      = TEME
TIME_SYSTEM    = UTC
MEAN_ELEMENT_THEORY = SGP/SGP4

EPOCH          = 2026-02-16T12:02:55.271904
MEAN_MOTION    = 14.96947854
ECCENTRICITY   = .0335053
INCLINATION    = 49.7911
RA_OF_ASC_NODE = 123.3761
ARG_OF_PERICENTER = 186.6001
MEAN_ANOMALY   = 173.0470

EPHEMERIS_TYPE = 0
CLASSIFICATION_TYPE = U
NORAD_CAT_ID   = 67719
ELEMENT_SET_NO = 999
REV_AT_EPOCH   = 106
BSTAR          = .48123E-2
MEAN_MOTION_DOT = .187275E-2
MEAN_MOTION_DDOT = 0

CCSDS_OMM_VERS = 2.0
CREATION_DATE  = 
ORIGINATOR     = 

OBJECT_NAME    = CZ-2F DEB
OBJECT_ID      = 2026-024G
CENTER_NAME    = EARTH
REF_FRAME      = TEME
TIME_SYSTEM    = UTC
MEAN_ELEMENT_THEORY = SGP/SGP4

EPOCH          = 2026-02-16T10:50:38.555232
MEAN_MOTION    = 14.94254718
ECCENTRICITY   = .0345924
INCLINATION    = 49.8302
RA_OF_ASC_NODE = 123.7914
ARG_OF_PERICENTER = 183.0166
MEAN_ANOMALY   = 176.8690

EPHEMERIS_TYPE = 0
CLASSIFICATION_TYPE = U
NORAD_CAT_ID   = 67720
ELEMENT_SET_NO = 999
REV_AT_EPOCH   = 137
BSTAR          = .48689E-2
MEAN_MOTION_DOT = .184614E-2
MEAN_MOTION_DDOT = 0

CCSDS_OMM_VERS = 2.0
CREATION_DATE  = 
ORIGINATOR     = 

OBJECT_NAME    = 2026-027A
OBJECT_ID      = 2026-027A
CENTER_NAME    = EARTH
REF_FRAME      = TEME
TIME_SYSTEM    = UTC
MEAN_ELEMENT_THEORY = SGP/SGP4

EPOCH          = 2026-02-16T11:17:35.521728
MEAN_MOTION    = 15.17283468
ECCENTRICITY   = .0009147
INCLINATION    = 97.4877
RA_OF_ASC_NODE = 176.7183
ARG_OF_PERICENTER = 274.2575
MEAN_ANOMALY   = 85.7613

EPHEMERIS_TYPE = 0
CLASSIFICATION_TYPE = U
NORAD_CAT_ID   = 67746
ELEMENT_SET_NO = 999
REV_AT_EPOCH   = 64
BSTAR          = .45806E-3
MEAN_MOTION_DOT = .9071E-4
MEAN_MOTION_DDOT = 0

CCSDS_OMM_VERS = 2.0
CREATION_DATE  = 
ORIGINATOR     = 

OBJECT_NAME    = 2026-027B
OBJECT_ID      = 2026-027B
CENTER_NAME    = EARTH
REF_FRAME      = TEME
TIME_SYSTEM    = UTC
MEAN_ELEMENT_THEORY = SGP/SGP4

EPOCH          = 2026-02-16T11:17:11.322816
MEAN_MOTION    = 15.17384773
ECCENTRICITY   = .0009319
INCLINATION    = 97.4871
RA_OF_ASC_NODE = 176.7182
ARG_OF_PERICENTER = 276.9080
MEAN_ANOMALY   = 83.1093

EPHEMERIS_TYPE = 0
CLASSIFICATION_TYPE = U
NORAD_CAT_ID   = 67747
ELEMENT_SET_NO = 999
REV_AT_EPOCH   = 64
BSTAR          = .45213E-3
MEAN_MOTION_DOT = .8979E-4
MEAN_MOTION_DDOT = 0

CCSDS_OMM_VERS = 2.0
CREATION_DATE  = 
ORIGINATOR     = 

OBJECT_NAME    = 2027-027C
OBJECT_ID      = 2027-027C
CENTER_NAME    = EARTH
REF_FRAME      = TEME
TIME_SYSTEM    = UTC
MEAN_ELEMENT_THEORY = SGP/SGP4

EPOCH          = 2026-02-16T11:16:36.949440
MEAN_MOTION    = 15.17516194
ECCENTRICITY   = .0009767
INCLINATION    = 97.4883
RA_OF_ASC_NODE = 176.7195
ARG_OF_PERICENTER = 280.1042
MEAN_ANOMALY   = 79.9089

EPHEMERIS_TYPE = 0
CLASSIFICATION_TYPE = U
NORAD_CAT_ID   = 67748
ELEMENT_SET_NO = 999
REV_AT_EPOCH   = 64
BSTAR          = .29866E-3
MEAN_MOTION_DOT = .5928E-4
MEAN_MOTION_DDOT = 0

CCSDS_OMM_VERS = 2.0
CREATION_DATE  = 
ORIGINATOR     = 

OBJECT_NAME    = 2026-027D
OBJECT_ID      = 2026-027D
CENTER_NAME    = EARTH
REF_FRAME      = TEME
TIME_SYSTEM    = UTC
MEAN_ELEMENT_THEORY = SGP/SGP4

EPOCH          = 2026-02-16T11:16:03.200736
MEAN_MOTION    = 15.17674967
ECCENTRICITY   = .0009565
INCLINATION    = 97.4878
RA_OF_ASC_NODE = 176.7198
ARG_OF_PERICENTER = 284.3017
MEAN_ANOMALY   = 75.7154

EPHEMERIS_TYPE = 0
CLASSIFICATION_TYPE = U
NORAD_CAT_ID   = 67749
ELEMENT_SET_NO = 999
REV_AT_EPOCH   = 59
BSTAR          = .4908E-3
MEAN_MOTION_DOT = .9835E-4
MEAN_MOTION_DDOT = 0

